OBJECT_NAME,OBJECT_ID,EPOCH,MEAN_MOTION,ECCENTRICITY,INCLINATION,RA_OF_ASC_NODE,ARG_OF_PERICENTER,MEAN_ANOMALY,EPHEMERIS_TYPE,CLASSIFICATION_TYPE,NORAD_CAT_ID,ELEMENT_SET_NO,REV_AT_EPOCH,BSTAR,MEAN_MOTION_DOT,MEAN_MOTION_DDOT
SL-16 R/B,1996-051B,2026-07-14T05:25:26.584032,14.12456089,.0017731,70.7647,267.4281,299.3502,60.5846,0,U,24298,999,53951,.10835E-3,.151E-5,0
ORBVIEW 2 (SEASTAR),1997-037A,2026-07-14T01:30:55.232064,14.35566462,.0003123,98.8712,2.8304,63.2348,296.9156,0,U,24883,999,52660,.50364E-4,.98E-6,0
SL-16 R/B,1998-043G,2026-07-13T21:13:21.847296,14.26072577,.0010109,98.8379,149.2753,15.1301,345.0179,0,U,25400,999,45697,.16809E-4,-.5E-7,0
SL-16 R/B,1998-045B,2026-07-14T05:13:09.993792,14.16205652,.0008247,71.0111,275.4847,208.0407,152.0273,0,U,25407,999,44501,-.90586E-4,-.227E-5,0
ISS (ZARYA),1998-067A,2026-07-14T03:41:05.800704,15.49005057,.0006704,51.6308,166.6375,293.6864,66.3421,0,U,25544,999,57593,.81426E-4,.4039E-4,0
CZ-4B R/B,1999-025C,2026-07-14T02:03:22.446144,14.18287581,.0036692,98.6473,236.2454,342.9734,70.4601,0,U,25732,999,40608,.32688E-4,.25E-6,0
OKEAN-O,1999-039A,2026-07-14T04:18:24.930144,14.80496700,.0000898,97.9302,253.6655,85.1191,275.0123,0,U,25860,999,45310,.4259E-4,.274E-5,0
SL-16 R/B,1999-039B,2026-07-14T04:13:42.868704,14.81870184,.0014244,97.9824,253.9603,201.8503,158.2104,0,U,25861,999,45559,.35002E-4,.223E-5,0
DELTA 2 R/B,1999-041E,2026-07-14T01:44:06.479808,14.12081977,.0501357,51.7613,156.3836,1.4424,358.7825,0,U,25876,999,38088,.25412E-3,.1342E-4,0
HELIOS 1B,1999-064A,2026-07-14T03:26:14.863776,14.88073857,.0002009,98.1586,101.0608,54.9736,305.1668,0,U,25977,999,70406,.81065E-4,.687E-5,0
TERRA,1999-068A,2026-07-14T03:06:11.432736,14.61123253,.0003368,97.9442,243.6054,124.9231,259.1124,0,U,25994,999,41354,.49282E-4,.198E-5,0
SL-16 R/B,2000-006B,2026-07-14T04:40:48.453600,14.15838195,.0017145,71.0002,191.8359,341.3356,18.7136,0,U,26070,999,36646,-.68219E-4,-.182E-5,0
TITAN 4B R/B,2000-047B,2026-07-14T03:31:52.667040,15.10330243,.0045857,67.9873,44.6781,259.7886,99.8090,0,U,26474,999,41200,.84214E-4,.1275E-4,0
ENVISAT,2002-009A,2026-07-13T21:06:33.882048,14.39070590,.0001336,98.3846,145.6047,83.8152,340.0934,0,U,27386,999,27732,.20032E-4,.19E-6,0
IDEFIX & ARIANE 42P R/B,2002-021B,2026-07-13T20:06:28.687392,14.31093401,.0011809,98.5942,132.0327,170.4140,189.7270,0,U,27422,999,26206,.49181E-4,.86E-6,0
AQUA,2002-022A,2026-07-14T05:17:51.058176,14.62196256,.0000915,98.4295,165.0470,111.3891,305.7736,0,U,27424,999,28722,.83227E-4,.37E-5,0
CZ-4B R/B,2002-024C,2026-07-14T02:48:51.556032,14.14568134,.0050519,98.8687,247.7606,25.0330,28.8435,0,U,27432,999,24711,.29168E-4,.12E-6,0
MIDORI II (ADEOS-II),2002-056A,2026-07-13T21:05:05.914752,14.29362687,.0001536,98.7894,154.3676,42.3946,317.7354,0,U,27597,999,22832,.56057E-4,.97E-6,0
H-2A R/B,2002-056E,2026-07-13T21:04:26.370336,14.33833472,.007082,98.3328,150.5818,144.8127,274.0126,0,U,27601,999,23219,.54701E-4,.115E-5,0
CZ-4B R/B,2003-049C,2026-07-13T23:31:35.764320,14.55115618,.0047567,98.6909,194.8948,205.0029,154.8863,0,U,28059,999,20496,.43869E-4,.14E-5,0
CZ-2C R/B,2004-012C,2026-07-14T04:07:09.916320,15.84994516,.001139,97.7055,274.0946,193.7629,166.3331,0,U,28222,999,22416,.45024E-3,.106424E-2,0
SL-16 R/B,2004-021B,2026-07-13T19:40:21.101088,14.14616296,.0006353,71.0027,327.7949,226.3027,133.7570,0,U,28353,999,14067,.32851E-4,.16E-6,0
CZ-4B R/B,2004-035C,2026-07-14T03:06:01.914912,15.30983035,.0029177,97.3357,227.9037,236.6045,123.2404,0,U,28415,999,19924,.14363E-3,.4275E-4,0
CZ-2C R/B,2004-046B,2026-07-14T04:28:39.705024,14.27032923,.0140066,98.1918,102.2766,140.3620,220.7903,0,U,28480,999,12654,.35353E-4,.55E-6,0
ARIANE 5 R/B,2004-049H,2026-07-14T01:46:28.189632,14.85478254,.0082684,98.2740,8.3695,301.9758,57.3437,0,U,28499,999,16455,.34894E-4,.253E-5,0
CZ-2D R/B,2005-024B,2026-07-14T00:48:43.877088,15.72643858,.0002193,97.3468,215.8620,194.2421,165.8781,0,U,28738,999,15955,.34971E-3,.46916E-3,0
ALOS (DAICHI),2006-002A,2026-07-13T20:09:24.714432,14.70100301,.0000815,98.1336,150.3269,96.7741,263.3557,0,U,28931,999,9201,.88602E-4,.483E-5,0
H-2A R/B,2006-002B,2026-07-14T00:15:04.895712,15.18433591,.0050742,98.2586,353.2768,170.0284,190.1967,0,U,28932,999,11359,.23236E-3,.4862E-4,0
RESURS-DK 1,2006-021A,2026-07-14T04:52:05.737152,15.13317177,.0007041,69.9309,269.6153,271.9695,88.0665,0,U,29228,999,10666,.59675E-4,.957E-5,0
CZ-4B R/B,2006-046C,2026-07-14T02:00:27.170784,15.17976179,.0032466,97.5440,239.6082,185.9648,174.1203,0,U,29507,999,7921,.12497E-3,.2502E-4,0
CZ-2C R/B,2007-010B,2026-07-14T04:22:52.957632,14.20281611,.0057788,98.4118,302.2159,286.7736,72.7106,0,U,31114,999,99767,.31694E-4,.27E-6,0
