SL-16 R/B               
1 24298U 96051B   26195.22600213  .00000151  00000+0  10835-3 0  9991
2 24298  70.7647 267.4281 0017731 299.3502  60.5846 14.12456089539519
ORBVIEW 2 (SEASTAR)     
1 24883U 97037A   26195.06313926  .00000098  00000+0  50364-4 0  9992
2 24883  98.8712   2.8304 0003123  63.2348 296.9156 14.35566462526603
SL-16 R/B               
1 25400U 98043G   26194.88428064 -.00000005  00000+0  16809-4 0  9990
2 25400  98.8379 149.2753 0010109  15.1301 345.0179 14.26072577456971
SL-16 R/B               
1 25407U 98045B   26195.21747678 -.00000227  00000+0 -90586-4 0  9993
2 25407  71.0111 275.4847 0008247 208.0407 152.0273 14.16205652445016
ISS (ZARYA)             
1 25544U 98067A   26195.15353936  .00004039  00000+0  81426-4 0  9998
2 25544  51.6308 166.6375 0006704 293.6864  66.3421 15.49005057575931
CZ-4B R/B               
1 25732U 99025C   26195.08567646  .00000025  00000+0  32688-4 0  9996
2 25732  98.6473 236.2454 0036692 342.9734  70.4601 14.18287581406083
OKEAN-O                 
1 25860U 99039A   26195.17945521  .00000274  00000+0  42590-4 0  9994
2 25860  97.9302 253.6655 0000898  85.1191 275.0123 14.80496700453107
SL-16 R/B               
1 25861U 99039B   26195.17619061  .00000223  00000+0  35002-4 0  9996
2 25861  97.9824 253.9603 0014244 201.8503 158.2104 14.81870184455596
DELTA 2 R/B             
1 25876U 99041E   26195.07229722  .00001342  00000+0  25412-3 0  9991
2 25876  51.7613 156.3836 0501357   1.4424 358.7825 14.12081977380886
HELIOS 1B               
1 25977U 99064A   26195.14322759  .00000687  00000+0  81065-4 0  9998
2 25977  98.1586 101.0608 0002009  54.9736 305.1668 14.88073857704067
TERRA                   
1 25994U 99068A   26195.12929899  .00000198  00000+0  49282-4 0  9999
2 25994  97.9442 243.6054 0003368 124.9231 259.1124 14.61123253413541
SL-16 R/B               
1 26070U 00006B   26195.19500525 -.00000182  00000+0 -68219-4 0  9993
2 26070  71.0002 191.8359 0017145 341.3356  18.7136 14.15838195366462
TITAN 4B R/B            
1 26474U 00047B   26195.14713735  .00001275  00000+0  84214-4 0  9995
2 26474  67.9873  44.6781 0045857 259.7886  99.8090 15.10330243412003
ENVISAT                 
1 27386U 02009A   26194.87955882  .00000019  00000+0  20032-4 0  9991
2 27386  98.3846 145.6047 0001336  83.8152 340.0934 14.39070590277325
IDEFIX & ARIANE 42P R/B 
1 27422U 02021B   26194.83783203  .00000086  00000+0  49181-4 0  9998
2 27422  98.5942 132.0327 0011809 170.4140 189.7270 14.31093401262066
AQUA                    
1 27424U 02022A   26195.22072984  .00000370  00000+0  83227-4 0  9997
2 27424  98.4295 165.0470 0000915 111.3891 305.7736 14.62196256287224
CZ-4B R/B               
1 27432U 02024C   26195.11726338  .00000012  00000+0  29168-4 0  9992
2 27432  98.8687 247.7606 0050519  25.0330  28.8435 14.14568134247113
MIDORI II (ADEOS-II)    
1 27597U 02056A   26194.87854068  .00000097  00000+0  56057-4 0  9993
2 27597  98.7894 154.3676 0001536  42.3946 317.7354 14.29362687228327
H-2A R/B                
1 27601U 02056E   26194.87808299  .00000115  00000+0  54701-4 0  9999
2 27601  98.3328 150.5818 0070820 144.8127 274.0126 14.33833472232190
CZ-4B R/B               
1 28059U 03049C   26194.98027505  .00000140  00000+0  43869-4 0  9996
2 28059  98.6909 194.8948 0047567 205.0029 154.8863 14.55115618204960
CZ-2C R/B               
1 28222U 04012C   26195.17164255  .00106424  00000+0  45024-3 0  9991
2 28222  97.7055 274.0946 0011390 193.7629 166.3331 15.84994516224164
SL-16 R/B               
1 28353U 04021B   26194.81968867  .00000016  00000+0  32851-4 0  9992
2 28353  71.0027 327.7949 0006353 226.3027 133.7570 14.14616296140674
CZ-4B R/B               
1 28415U 04035C   26195.12918883  .00004275  00000+0  14363-3 0  9992
2 28415  97.3357 227.9037 0029177 236.6045 123.2404 15.30983035199246
CZ-2C R/B               
1 28480U 04046B   26195.18657066  .00000055  00000+0  35353-4 0  9990
2 28480  98.1918 102.2766 0140066 140.3620 220.7903 14.27032923126541
ARIANE 5 R/B            
1 28499U 04049H   26195.07393738  .00000253  00000+0  34894-4 0  9993
2 28499  98.2740   8.3695 0082684 301.9758  57.3437 14.85478254164554
CZ-2D R/B               
1 28738U 05024B   26195.03384117  .00046916  00000+0  34971-3 0  9991
2 28738  97.3468 215.8620 0002193 194.2421 165.8781 15.72643858159559
ALOS (DAICHI)           
1 28931U 06002A   26194.83986938  .00000483  00000+0  88602-4 0  9999
2 28931  98.1336 150.3269 0000815  96.7741 263.3557 14.70100301 92019
H-2A R/B                
1 28932U 06002B   26195.01047333  .00004862  00000+0  23236-3 0  9994
2 28932  98.2586 353.2768 0050742 170.0284 190.1967 15.18433591113590
RESURS-DK 1             
1 29228U 06021A   26195.20284418  .00000957  00000+0  59675-4 0  9990
2 29228  69.9309 269.6153 0007041 271.9695  88.0665 15.13317177106662
CZ-4B R/B               
1 29507U 06046C   26195.08364781  .00002502  00000+0  12497-3 0  9993
2 29507  97.5440 239.6082 0032466 185.9648 174.1203 15.17976179 79216
CZ-2C R/B               
1 31114U 07010B   26195.18255738  .00000027  00000+0  31694-4 0  9995
2 31114  98.4118 302.2159 0057788 286.7736  72.7106 14.20281611997676
